{
"type": "FeatureCollection",
"name": "new_corella_boundary",
"crs": { "type": "name", "properties": { "name": "urn:ogc:def:crs:OGC:1.3:CRS84" } },
"features": [
{ "type": "Feature", "properties": { }, "geometry": { "type": "Polygon", "coordinates": [ [ [ 125.7738551, 7.523854 ], [ 125.7741945, 7.5105777 ], [ 125.7780923, 7.5105776 ], [ 125.7813871, 7.5105774 ], [ 125.8523587, 7.5105774 ], [ 125.8523588, 7.5250238 ], [ 125.9015177, 7.5441638 ], [ 125.9015179, 7.6063756 ], [ 125.9340793, 7.6063755 ], [ 125.9340794, 7.6528527 ], [ 125.9338664, 7.6601141 ], [ 125.93289, 7.6673097 ], [ 125.93116, 7.6743645 ], [ 125.9286955, 7.6812015 ], [ 125.9255234, 7.6877455 ], [ 125.9216784, 7.6939251 ], [ 125.9172027, 7.6996725 ], [ 125.9121347, 7.7049358 ], [ 125.9117049, 7.7046524 ], [ 125.9115533, 7.7044816 ], [ 125.9113482, 7.7041899 ], [ 125.9112567, 7.703835 ], [ 125.9112567, 7.7035763 ], [ 125.9113052, 7.7032995 ], [ 125.911442, 7.7029752 ], [ 125.9116352, 7.702635 ], [ 125.9117156, 7.7023931 ], [ 125.9117424, 7.7021485 ], [ 125.9116968, 7.7019333 ], [ 125.9115735, 7.7017047 ], [ 125.9112623, 7.7013445 ], [ 125.9106119, 7.7007039 ], [ 125.9103128, 7.7004448 ], [ 125.9100647, 7.700163 ], [ 125.9099025, 7.7000049 ], [ 125.9097804, 7.6998122 ], [ 125.9096503, 7.6996035 ], [ 125.909543, 7.6995503 ], [ 125.9093861, 7.6995437 ], [ 125.9092426, 7.6995982 ], [ 125.9090401, 7.6997822 ], [ 125.90891, 7.6999703 ], [ 125.9087813, 7.7002135 ], [ 125.9086271, 7.7002972 ], [ 125.9084608, 7.7003358 ], [ 125.9083233, 7.700276 ], [ 125.9082274, 7.7001763 ], [ 125.9080772, 7.7000102 ], [ 125.907864, 7.6997829 ], [ 125.9076923, 7.6995849 ], [ 125.9074751, 7.6993417 ], [ 125.9073624, 7.6990812 ], [ 125.9073021, 7.6988925 ], [ 125.9073088, 7.6986905 ], [ 125.9073986, 7.698523 ], [ 125.90753, 7.6983476 ], [ 125.9077688, 7.6981668 ], [ 125.9079632, 7.698022 ], [ 125.9081516, 7.6978851 ], [ 125.9082576, 7.6977688 ], [ 125.9082985, 7.6975741 ], [ 125.9083669, 7.6971927 ], [ 125.908438, 7.6968989 ], [ 125.9084702, 7.6965693 ], [ 125.908442, 7.6964218 ], [ 125.9083951, 7.6963328 ], [ 125.9082408, 7.6961029 ], [ 125.9080853, 7.6959939 ], [ 125.9078546, 7.6958942 ], [ 125.9075864, 7.6957174 ], [ 125.9071344, 7.6953174 ], [ 125.9067187, 7.6948695 ], [ 125.9065296, 7.6947353 ], [ 125.906378, 7.69471 ], [ 125.906193, 7.6947805 ], [ 125.9060951, 7.6948735 ], [ 125.905977, 7.6950343 ], [ 125.9057786, 7.6953254 ], [ 125.9056297, 7.6954357 ], [ 125.9054621, 7.6954809 ], [ 125.9052099, 7.6954902 ], [ 125.9047285, 7.6954609 ], [ 125.9042564, 7.6953971 ], [ 125.9039748, 7.6952696 ], [ 125.9037602, 7.6950596 ], [ 125.9035349, 7.6947512 ], [ 125.9034598, 7.694504 ], [ 125.9034249, 7.6940522 ], [ 125.9032077, 7.6930474 ], [ 125.9030199, 7.6924148 ], [ 125.9028107, 7.691931 ], [ 125.9026068, 7.6914951 ], [ 125.9023091, 7.690804 ], [ 125.9021965, 7.6903282 ], [ 125.9022394, 7.6898949 ], [ 125.9022796, 7.6895972 ], [ 125.9023467, 7.6893181 ], [ 125.9023333, 7.6891693 ], [ 125.9022662, 7.6890071 ], [ 125.9021214, 7.688853 ], [ 125.9017861, 7.6885739 ], [ 125.9013435, 7.68813 ], [ 125.9010753, 7.6879599 ], [ 125.900858, 7.6877605 ], [ 125.9006864, 7.6875824 ], [ 125.900504, 7.6872927 ], [ 125.9003296, 7.6868461 ], [ 125.9000427, 7.6859503 ], [ 125.8999327, 7.6854639 ], [ 125.899871, 7.6850412 ], [ 125.8998281, 7.684592 ], [ 125.8998672, 7.6841818 ], [ 125.8998898, 7.6839594 ], [ 125.8999568, 7.6838132 ], [ 125.9002116, 7.6834145 ], [ 125.9003162, 7.683239 ], [ 125.9003726, 7.6830663 ], [ 125.9003538, 7.6828616 ], [ 125.9002653, 7.6826835 ], [ 125.9000775, 7.6824815 ], [ 125.8998817, 7.6823167 ], [ 125.899348, 7.6820535 ], [ 125.8989537, 7.6819206 ], [ 125.8988008, 7.6818967 ], [ 125.8985943, 7.68191 ], [ 125.8983636, 7.6819791 ], [ 125.8980444, 7.6820987 ], [ 125.8977789, 7.6821944 ], [ 125.8975026, 7.6822449 ], [ 125.8971727, 7.6822927 ], [ 125.8969983, 7.6823087 ], [ 125.8968428, 7.6823751 ], [ 125.8967489, 7.6824948 ], [ 125.8966872, 7.6826622 ], [ 125.8965853, 7.6828323 ], [ 125.896368, 7.6830423 ], [ 125.8962473, 7.6831646 ], [ 125.8961293, 7.6833241 ], [ 125.896022, 7.6835368 ], [ 125.8959523, 7.683776 ], [ 125.8959013, 7.6839594 ], [ 125.8958235, 7.6841641 ], [ 125.8957484, 7.6843741 ], [ 125.895735, 7.6845601 ], [ 125.8957592, 7.6847382 ], [ 125.8958182, 7.6848897 ], [ 125.895904, 7.6850625 ], [ 125.8960676, 7.685331 ], [ 125.8961642, 7.6854958 ], [ 125.8962554, 7.6857191 ], [ 125.8962983, 7.6860061 ], [ 125.8962956, 7.6862401 ], [ 125.896301, 7.6868062 ], [ 125.8962983, 7.6871571 ], [ 125.89625, 7.6875452 ], [ 125.8961481, 7.6878535 ], [ 125.8959362, 7.6880768 ], [ 125.8956841, 7.6882363 ], [ 125.8953863, 7.6883346 ], [ 125.8951315, 7.6883692 ], [ 125.8949089, 7.6883506 ], [ 125.8946659, 7.688239 ], [ 125.8943751, 7.6879891 ], [ 125.8941632, 7.6878083 ], [ 125.8939943, 7.6876276 ], [ 125.8937153, 7.6873565 ], [ 125.8932754, 7.6870534 ], [ 125.8928302, 7.6868567 ], [ 125.8924413, 7.6867291 ], [ 125.8919058, 7.686664 ], [ 125.8916567, 7.6866405 ], [ 125.8913838, 7.6866405 ], [ 125.8908963, 7.6866308 ], [ 125.8904591, 7.686575 ], [ 125.8902097, 7.6865192 ], [ 125.8899897, 7.6864394 ], [ 125.8897483, 7.6862454 ], [ 125.8896679, 7.6861709 ], [ 125.8895686, 7.6861284 ], [ 125.8894855, 7.6861311 ], [ 125.8893836, 7.6862108 ], [ 125.8892789, 7.6864022 ], [ 125.889177, 7.6866308 ], [ 125.8890751, 7.6868009 ], [ 125.888949, 7.686894 ], [ 125.8888283, 7.6869046 ], [ 125.888705, 7.6868807 ], [ 125.8884582, 7.6867903 ], [ 125.8880559, 7.686684 ], [ 125.8875731, 7.6865909 ], [ 125.8873504, 7.6864926 ], [ 125.887219, 7.6863464 ], [ 125.8869642, 7.6858041 ], [ 125.8868891, 7.6855941 ], [ 125.8868623, 7.6853682 ], [ 125.8868542, 7.6848206 ], [ 125.8868381, 7.6844804 ], [ 125.8867201, 7.683861 ], [ 125.8866149, 7.6834771 ], [ 125.8859986, 7.6822502 ], [ 125.8858645, 7.6819206 ], [ 125.8857948, 7.6816123 ], [ 125.885776, 7.6812853 ], [ 125.8858296, 7.6809823 ], [ 125.8858323, 7.6807882 ], [ 125.8857706, 7.6803603 ], [ 125.8856016, 7.6796452 ], [ 125.8853441, 7.6787601 ], [ 125.8852369, 7.6785155 ], [ 125.8851215, 7.6783906 ], [ 125.8848774, 7.6782816 ], [ 125.8845985, 7.6782364 ], [ 125.8842015, 7.6782975 ], [ 125.8838555, 7.6784411 ], [ 125.8828872, 7.6790471 ], [ 125.8827257, 7.6791709 ], [ 125.8825868, 7.6793741 ], [ 125.8822381, 7.6799775 ], [ 125.8819029, 7.6805782 ], [ 125.8816829, 7.6808467 ], [ 125.8811754, 7.6812815 ], [ 125.8803123, 7.6819844 ], [ 125.8800441, 7.6821598 ], [ 125.8798215, 7.6822236 ], [ 125.8795554, 7.6822384 ], [ 125.8793655, 7.6822103 ], [ 125.8792555, 7.6821519 ], [ 125.8791777, 7.6820854 ], [ 125.8791697, 7.682019 ], [ 125.8792979, 7.6817334 ], [ 125.8795125, 7.6812337 ], [ 125.8795559, 7.6810195 ], [ 125.8795559, 7.6808467 ], [ 125.8794755, 7.6804267 ], [ 125.8792368, 7.6798074 ], [ 125.8789632, 7.6792093 ], [ 125.8786467, 7.6786537 ], [ 125.8785099, 7.67838 ], [ 125.8784321, 7.6780636 ], [ 125.878445, 7.6777159 ], [ 125.8784991, 7.6770535 ], [ 125.8785608, 7.6767372 ], [ 125.8786064, 7.6765458 ], [ 125.8787084, 7.6763943 ], [ 125.8788049, 7.6762189 ], [ 125.8788747, 7.6759956 ], [ 125.8789203, 7.6756474 ], [ 125.8788988, 7.6755065 ], [ 125.8788371, 7.6753895 ], [ 125.8787459, 7.6753284 ], [ 125.8785528, 7.6752646 ], [ 125.8782041, 7.6751264 ], [ 125.8776315, 7.6749376 ], [ 125.8775309, 7.6749137 ], [ 125.8769381, 7.6748605 ], [ 125.8760637, 7.6747462 ], [ 125.8754253, 7.6745867 ], [ 125.8750659, 7.6745921 ], [ 125.8748513, 7.674725 ], [ 125.8747065, 7.6749855 ], [ 125.8746958, 7.6753045 ], [ 125.8748513, 7.6757882 ], [ 125.8756185, 7.6774788 ], [ 125.8761442, 7.678356 ], [ 125.8763561, 7.678893 ], [ 125.8763909, 7.6792332 ], [ 125.8763856, 7.6795628 ], [ 125.876348, 7.6798818 ], [ 125.8762675, 7.6800971 ], [ 125.8761066, 7.6802912 ], [ 125.8754098, 7.6808147 ], [ 125.873993, 7.6816309 ], [ 125.8725902, 7.6823246 ], [ 125.8719572, 7.6825851 ], [ 125.8716327, 7.6827765 ], [ 125.8713081, 7.6829972 ], [ 125.8711526, 7.6831035 ], [ 125.87093, 7.6831939 ], [ 125.870592, 7.6832842 ], [ 125.8700347, 7.6835518 ], [ 125.8693528, 7.6839753 ], [ 125.868583, 7.6845894 ], [ 125.8680654, 7.6850838 ], [ 125.8678964, 7.6852087 ], [ 125.8677086, 7.6853602 ], [ 125.8676469, 7.6854719 ], [ 125.867663, 7.6856446 ], [ 125.8679683, 7.6866244 ], [ 125.8682853, 7.6874256 ], [ 125.868575, 7.6879466 ], [ 125.8687386, 7.6881114 ], [ 125.8689451, 7.6882044 ], [ 125.8692294, 7.6882655 ], [ 125.8694735, 7.688332 ], [ 125.8697391, 7.6884835 ], [ 125.8700609, 7.6886961 ], [ 125.8704069, 7.6888955 ], [ 125.8707476, 7.6890311 ], [ 125.8710641, 7.6891161 ], [ 125.8712009, 7.689164 ], [ 125.871335, 7.6892889 ], [ 125.87152, 7.6896132 ], [ 125.8715495, 7.6898179 ], [ 125.8715227, 7.6900863 ], [ 125.8714959, 7.6903495 ], [ 125.8714262, 7.6909768 ], [ 125.8713904, 7.6912866 ], [ 125.8714181, 7.6915722 ], [ 125.8715898, 7.6920267 ], [ 125.8718607, 7.6928986 ], [ 125.8719304, 7.6931963 ], [ 125.8719304, 7.6933239 ], [ 125.8718768, 7.6934435 ], [ 125.8717105, 7.6935737 ], [ 125.87152, 7.6936668 ], [ 125.8712384, 7.6937784 ], [ 125.8710667, 7.6937943 ], [ 125.870879, 7.693781 ], [ 125.8705813, 7.6937066 ], [ 125.870305, 7.6935525 ], [ 125.8700743, 7.6933478 ], [ 125.8699965, 7.6931936 ], [ 125.8699577, 7.6930501 ], [ 125.8699416, 7.6928853 ], [ 125.869908, 7.6927723 ], [ 125.8698383, 7.692654 ], [ 125.8697417, 7.692545 ], [ 125.8696693, 7.6924414 ], [ 125.8695325, 7.6921038 ], [ 125.8693045, 7.6915935 ], [ 125.8691972, 7.6913782 ], [ 125.8690256, 7.6911815 ], [ 125.8686447, 7.6910565 ], [ 125.8682075, 7.6909741 ], [ 125.867773, 7.6909475 ], [ 125.8673009, 7.6910007 ], [ 125.8668235, 7.6911097 ], [ 125.8666009, 7.6911735 ], [ 125.8663166, 7.6913011 ], [ 125.865941, 7.6915642 ], [ 125.8656031, 7.6917742 ], [ 125.8653375, 7.6919257 ], [ 125.8649513, 7.6922314 ], [ 125.8645973, 7.6924653 ], [ 125.8643103, 7.6925504 ], [ 125.8641091, 7.692561 ], [ 125.8639643, 7.6925211 ], [ 125.8638006, 7.6924228 ], [ 125.8636987, 7.6922846 ], [ 125.8636397, 7.6921065 ], [ 125.863622, 7.6918674 ], [ 125.8635941, 7.6914101 ], [ 125.8633957, 7.6909821 ], [ 125.8631301, 7.6903521 ], [ 125.8630469, 7.690089 ], [ 125.8630228, 7.689887 ], [ 125.8630362, 7.6896663 ], [ 125.8630771, 7.6894411 ], [ 125.8630885, 7.6893673 ], [ 125.8630886, 7.6893088 ], [ 125.863082, 7.689263 ], [ 125.8630664, 7.689213 ], [ 125.8630505, 7.6891651 ], [ 125.8629369, 7.6888654 ], [ 125.8627841, 7.688542 ], [ 125.8625025, 7.6878456 ], [ 125.8624059, 7.6874894 ], [ 125.8623362, 7.6872209 ], [ 125.8622181, 7.6869524 ], [ 125.862076, 7.6866733 ], [ 125.8618534, 7.6863623 ], [ 125.8616361, 7.6860513 ], [ 125.8615503, 7.6857589 ], [ 125.8614135, 7.6852486 ], [ 125.8612579, 7.6847382 ], [ 125.8611211, 7.6843555 ], [ 125.8610916, 7.6840764 ], [ 125.8611479, 7.6838743 ], [ 125.8613598, 7.6835873 ], [ 125.8615664, 7.6834304 ], [ 125.8616415, 7.6832975 ], [ 125.8616737, 7.6830609 ], [ 125.8616254, 7.6828058 ], [ 125.8615717, 7.682524 ], [ 125.8614939, 7.68233 ], [ 125.8614215, 7.6821891 ], [ 125.8611104, 7.6819206 ], [ 125.8608529, 7.6815937 ], [ 125.8606732, 7.6814209 ], [ 125.8605793, 7.6813916 ], [ 125.8604184, 7.6814049 ], [ 125.8601904, 7.6814714 ], [ 125.8600321, 7.6814687 ], [ 125.85989, 7.6814235 ], [ 125.8598202, 7.681381 ], [ 125.8597827, 7.6812773 ], [ 125.8598202, 7.6806181 ], [ 125.859831, 7.6800759 ], [ 125.8598712, 7.6798313 ], [ 125.8599678, 7.6794592 ], [ 125.8600751, 7.6788956 ], [ 125.8601662, 7.6783507 ], [ 125.8601662, 7.6781434 ], [ 125.8600938, 7.6778005 ], [ 125.8599383, 7.6774682 ], [ 125.8596352, 7.6769897 ], [ 125.8595306, 7.6768648 ], [ 125.859426, 7.6767292 ], [ 125.8592624, 7.6766043 ], [ 125.8591175, 7.676591 ], [ 125.8589067, 7.6766664 ], [ 125.8585489, 7.6769552 ], [ 125.8579159, 7.6774682 ], [ 125.8576584, 7.6776676 ], [ 125.8574384, 7.6778138 ], [ 125.8568966, 7.6780344 ], [ 125.8561456, 7.6782497 ], [ 125.8558847, 7.6782768 ], [ 125.8557487, 7.678255 ], [ 125.8556261, 7.6781983 ], [ 125.8555207, 7.6780929 ], [ 125.855467, 7.6779041 ], [ 125.8554858, 7.677649 ], [ 125.855526, 7.6771466 ], [ 125.8556682, 7.6765883 ], [ 125.8558372, 7.6760541 ], [ 125.8559766, 7.6754772 ], [ 125.8560222, 7.6750838 ], [ 125.8559927, 7.6747702 ], [ 125.8559257, 7.6745814 ], [ 125.8556896, 7.6743342 ], [ 125.8555363, 7.6743216 ], [ 125.8551351, 7.6744262 ], [ 125.8547106, 7.674616 ], [ 125.854201, 7.6748605 ], [ 125.8539355, 7.6750067 ], [ 125.8536646, 7.6752194 ], [ 125.853458, 7.6754639 ], [ 125.8533052, 7.6757377 ], [ 125.853163, 7.6760354 ], [ 125.8529833, 7.6763863 ], [ 125.8527633, 7.6767558 ], [ 125.852463, 7.6771811 ], [ 125.8521894, 7.6775533 ], [ 125.8517843, 7.6781115 ], [ 125.8514464, 7.6785448 ], [ 125.8508536, 7.6791003 ], [ 125.8504821, 7.6794619 ], [ 125.8500324, 7.679857 ], [ 125.8497486, 7.6800625 ], [ 125.849479, 7.6802207 ], [ 125.849238, 7.6803282 ], [ 125.8489975, 7.6804001 ], [ 125.848791, 7.6803975 ], [ 125.8485496, 7.680355 ], [ 125.848268, 7.6802353 ], [ 125.84804, 7.6800493 ], [ 125.8476345, 7.6794958 ], [ 125.8473131, 7.679095 ], [ 125.8468518, 7.6784491 ], [ 125.8466479, 7.6780636 ], [ 125.8464998, 7.677706 ], [ 125.8464521, 7.6772795 ], [ 125.8464602, 7.6768515 ], [ 125.8465299, 7.6763332 ], [ 125.8465701, 7.6759344 ], [ 125.8465084, 7.6756128 ], [ 125.8463958, 7.6753629 ], [ 125.8462241, 7.6751476 ], [ 125.8459514, 7.6749629 ], [ 125.8456064, 7.6748574 ], [ 125.8451997, 7.6747962 ], [ 125.8447674, 7.674817 ], [ 125.8445477, 7.6748765 ], [ 125.8442607, 7.6750121 ], [ 125.8439399, 7.6752548 ], [ 125.8437282, 7.6754789 ], [ 125.8435982, 7.6756713 ], [ 125.8435017, 7.6759371 ], [ 125.8434936, 7.6762056 ], [ 125.8435231, 7.6764608 ], [ 125.8436251, 7.6767532 ], [ 125.8437511, 7.6769924 ], [ 125.8439147, 7.6771333 ], [ 125.844124, 7.6772423 ], [ 125.8445511, 7.6773787 ], [ 125.8450701, 7.6775765 ], [ 125.8452156, 7.6776622 ], [ 125.8453046, 7.677799 ], [ 125.8453363, 7.6779201 ], [ 125.8453444, 7.6781008 ], [ 125.8453175, 7.6784358 ], [ 125.8451491, 7.6793139 ], [ 125.845044, 7.6795841 ], [ 125.8448991, 7.6798393 ], [ 125.8446577, 7.6801636 ], [ 125.844596, 7.6803098 ], [ 125.8445987, 7.6805012 ], [ 125.844655, 7.680642 ], [ 125.8450145, 7.6813491 ], [ 125.84528, 7.6819924 ], [ 125.8453256, 7.6822157 ], [ 125.8453095, 7.6823778 ], [ 125.845229, 7.6825745 ], [ 125.8449206, 7.6829227 ], [ 125.8443868, 7.6835873 ], [ 125.8439684, 7.6840391 ], [ 125.843794, 7.6841986 ], [ 125.8434856, 7.6844139 ], [ 125.8428687, 7.684794 ], [ 125.8425951, 7.6849269 ], [ 125.8423188, 7.6850306 ], [ 125.8419058, 7.6851183 ], [ 125.8415249, 7.685113 ], [ 125.8412862, 7.6850705 ], [ 125.8408087, 7.6849243 ], [ 125.8404493, 7.6847754 ], [ 125.8401811, 7.6846904 ], [ 125.8399317, 7.6846744 ], [ 125.8396178, 7.6846904 ], [ 125.8390599, 7.6847754 ], [ 125.8385262, 7.6849137 ], [ 125.8378288, 7.6850864 ], [ 125.8371663, 7.6852512 ], [ 125.8364462, 7.6854839 ], [ 125.8353531, 7.6857722 ], [ 125.8346075, 7.6858998 ], [ 125.8338511, 7.6859105 ], [ 125.8331054, 7.6858945 ], [ 125.8326817, 7.6858626 ], [ 125.8323276, 7.6857775 ], [ 125.8319092, 7.6856393 ], [ 125.8315766, 7.6855011 ], [ 125.8313352, 7.6853576 ], [ 125.8310509, 7.6850492 ], [ 125.8306915, 7.6847196 ], [ 125.8304661, 7.6845442 ], [ 125.8300799, 7.68439 ], [ 125.8294469, 7.6842624 ], [ 125.829066, 7.6842731 ], [ 125.8286691, 7.6843847 ], [ 125.828374, 7.6845814 ], [ 125.8279615, 7.6848131 ], [ 125.8276847, 7.6848791 ], [ 125.827395, 7.6848818 ], [ 125.8271724, 7.6848498 ], [ 125.8268398, 7.6847621 ], [ 125.8264214, 7.6845654 ], [ 125.826121, 7.6842677 ], [ 125.8258259, 7.6838105 ], [ 125.8254719, 7.6830822 ], [ 125.8251285, 7.6824974 ], [ 125.8249159, 7.6821688 ], [ 125.824788, 7.6817769 ], [ 125.8247504, 7.6814392 ], [ 125.8248317, 7.6810372 ], [ 125.8248918, 7.6807547 ], [ 125.8250133, 7.6803473 ], [ 125.825111, 7.6800362 ], [ 125.8251715, 7.6797968 ], [ 125.8252412, 7.6795735 ], [ 125.8253109, 7.679297 ], [ 125.8253699, 7.6789461 ], [ 125.8254034, 7.6786874 ], [ 125.8254182, 7.6784251 ], [ 125.8254075, 7.6781274 ], [ 125.8253781, 7.6778736 ], [ 125.8252817, 7.677574 ], [ 125.8251983, 7.677314 ], [ 125.8250803, 7.6769525 ], [ 125.8249792, 7.6766605 ], [ 125.824903, 7.6764218 ], [ 125.8248013, 7.6762401 ], [ 125.8246302, 7.6759911 ], [ 125.8244319, 7.6757826 ], [ 125.8242367, 7.6755479 ], [ 125.8240251, 7.6753184 ], [ 125.823776, 7.6751428 ], [ 125.8235887, 7.6750387 ], [ 125.8233637, 7.6749775 ], [ 125.8230445, 7.6749323 ], [ 125.8225617, 7.6749775 ], [ 125.8217275, 7.6751529 ], [ 125.8212072, 7.6752247 ], [ 125.8208236, 7.675238 ], [ 125.8205527, 7.6752114 ], [ 125.8203784, 7.6751184 ], [ 125.8202711, 7.6749376 ], [ 125.8202094, 7.6746824 ], [ 125.8201933, 7.6744512 ], [ 125.8202174, 7.6742119 ], [ 125.8202657, 7.673994 ], [ 125.8202738, 7.6738026 ], [ 125.8202389, 7.6735952 ], [ 125.820204, 7.6733533 ], [ 125.8201235, 7.6729918 ], [ 125.8200418, 7.6727205 ], [ 125.8199573, 7.6725453 ], [ 125.8197963, 7.6722635 ], [ 125.8196032, 7.6719286 ], [ 125.8194262, 7.6715777 ], [ 125.8193135, 7.6712693 ], [ 125.8192062, 7.6708706 ], [ 125.8191848, 7.670424 ], [ 125.8191258, 7.6699827 ], [ 125.8190668, 7.6694352 ], [ 125.8190614, 7.6691374 ], [ 125.8191419, 7.6686696 ], [ 125.8192813, 7.6680316 ], [ 125.8193779, 7.6675903 ], [ 125.819335, 7.6673298 ], [ 125.8192331, 7.667064 ], [ 125.8190077, 7.666862 ], [ 125.8186805, 7.6667238 ], [ 125.8181709, 7.6666493 ], [ 125.817672, 7.666644 ], [ 125.8173609, 7.6665909 ], [ 125.8171624, 7.6664739 ], [ 125.8170175, 7.6661177 ], [ 125.8169585, 7.6657349 ], [ 125.8169639, 7.6654212 ], [ 125.8171141, 7.6647833 ], [ 125.8172858, 7.6643739 ], [ 125.8174735, 7.6640708 ], [ 125.8177417, 7.6638422 ], [ 125.817849, 7.6636668 ], [ 125.817892, 7.6634541 ], [ 125.8178812, 7.6631936 ], [ 125.8178276, 7.6628427 ], [ 125.8177525, 7.6626088 ], [ 125.8175969, 7.6623749 ], [ 125.8173662, 7.662109 ], [ 125.8171248, 7.6618645 ], [ 125.8166367, 7.6617316 ], [ 125.8163255, 7.6617422 ], [ 125.8159715, 7.6618751 ], [ 125.8156174, 7.6621409 ], [ 125.8152741, 7.6625716 ], [ 125.8150113, 7.6628906 ], [ 125.8147484, 7.6630713 ], [ 125.8144695, 7.6630713 ], [ 125.8141476, 7.6630182 ], [ 125.813815, 7.6628161 ], [ 125.8135843, 7.6625716 ], [ 125.8134985, 7.6622685 ], [ 125.8134663, 7.6618858 ], [ 125.8135265, 7.6613547 ], [ 125.8136969, 7.6608178 ], [ 125.8139239, 7.6602676 ], [ 125.8142542, 7.6597711 ], [ 125.8146089, 7.6594322 ], [ 125.8151212, 7.6590122 ], [ 125.8155506, 7.658697 ], [ 125.8157971, 7.6585097 ], [ 125.8158991, 7.6583051 ], [ 125.815895, 7.6581123 ], [ 125.8158722, 7.6578718 ], [ 125.8157864, 7.6577176 ], [ 125.8156188, 7.6575448 ], [ 125.8153599, 7.6574305 ], [ 125.8145124, 7.657263 ], [ 125.8137305, 7.6571261 ], [ 125.813064, 7.6570105 ], [ 125.8124015, 7.6568403 ], [ 125.8120568, 7.6566848 ], [ 125.8115975, 7.656389 ], [ 125.8112293, 7.6560827 ], [ 125.8109799, 7.6557132 ], [ 125.8109209, 7.6552666 ], [ 125.8110225, 7.6546476 ], [ 125.8112669, 7.6539534 ], [ 125.8114454, 7.6535002 ], [ 125.8114842, 7.6532649 ], [ 125.8114493, 7.6529433 ], [ 125.8113688, 7.652712 ], [ 125.8112548, 7.6524967 ], [ 125.8110872, 7.6523132 ], [ 125.8109249, 7.6522056 ], [ 125.8106567, 7.6520939 ], [ 125.8104567, 7.6520922 ], [ 125.810304, 7.6521285 ], [ 125.8100197, 7.6522747 ], [ 125.8094645, 7.652712 ], [ 125.8090366, 7.6531785 ], [ 125.8086866, 7.6534643 ], [ 125.8083782, 7.6536078 ], [ 125.8081032, 7.6536397 ], [ 125.8078578, 7.6536078 ], [ 125.8076446, 7.6535082 ], [ 125.8074863, 7.6533407 ], [ 125.8073211, 7.6530883 ], [ 125.8071685, 7.6526907 ], [ 125.8070987, 7.6522601 ], [ 125.8070666, 7.6518374 ], [ 125.8069968, 7.6514812 ], [ 125.8068788, 7.6510133 ], [ 125.8066307, 7.6503494 ], [ 125.8064336, 7.6500457 ], [ 125.8061895, 7.6498171 ], [ 125.8059025, 7.6497054 ], [ 125.8055779, 7.6496948 ], [ 125.8051488, 7.6497187 ], [ 125.8045506, 7.649825 ], [ 125.804041, 7.6500138 ], [ 125.8037218, 7.6501999 ], [ 125.8034402, 7.6503966 ], [ 125.8032672, 7.6504471 ], [ 125.803054, 7.6504471 ], [ 125.8028273, 7.6503806 ], [ 125.8026771, 7.650257 ], [ 125.8020911, 7.6492189 ], [ 125.8018577, 7.6489531 ], [ 125.8015171, 7.6487112 ], [ 125.8010477, 7.6485331 ], [ 125.8005863, 7.6484294 ], [ 125.8001921, 7.6483443 ], [ 125.7997817, 7.648137 ], [ 125.7993874, 7.6478286 ], [ 125.7988134, 7.6474299 ], [ 125.7982984, 7.6472278 ], [ 125.7979202, 7.6471321 ], [ 125.7976574, 7.6470923 ], [ 125.7973355, 7.6470737 ], [ 125.7969654, 7.6470657 ], [ 125.7968608, 7.6470431 ], [ 125.7967427, 7.6469753 ], [ 125.7965751, 7.6468384 ], [ 125.7962599, 7.6465473 ], [ 125.7959716, 7.6462203 ], [ 125.7955626, 7.6456541 ], [ 125.7953748, 7.6452713 ], [ 125.7952166, 7.6449137 ], [ 125.7950181, 7.6446559 ], [ 125.794723, 7.6444472 ], [ 125.7944575, 7.6443196 ], [ 125.7942241, 7.6442611 ], [ 125.7938781, 7.6442372 ], [ 125.7934087, 7.6442505 ], [ 125.792926, 7.644309 ], [ 125.7923734, 7.6442797 ], [ 125.7919818, 7.6441627 ], [ 125.7916009, 7.6439767 ], [ 125.7911772, 7.6436284 ], [ 125.7905388, 7.6430409 ], [ 125.7899702, 7.6424986 ], [ 125.7895169, 7.6419829 ], [ 125.7891494, 7.6414964 ], [ 125.7888865, 7.6410498 ], [ 125.7887176, 7.6407414 ], [ 125.7885084, 7.6403347 ], [ 125.7883152, 7.6399598 ], [ 125.7880685, 7.6395956 ], [ 125.7877654, 7.6393258 ], [ 125.7875159, 7.6391331 ], [ 125.7871431, 7.6389736 ], [ 125.7866603, 7.6388486 ], [ 125.785743, 7.6387556 ], [ 125.7817046, 7.6358509 ], [ 125.7809257, 7.629201 ], [ 125.7880938, 7.6232766 ], [ 125.7832937, 7.6140332 ], [ 125.7823131, 7.5979797 ], [ 125.7805469, 7.5813464 ], [ 125.7812809, 7.5796951 ], [ 125.7776066, 7.5700503 ], [ 125.7792346, 7.5623874 ], [ 125.7792494, 7.5619473 ], [ 125.7792503, 7.5614887 ], [ 125.7792623, 7.5611267 ], [ 125.7792829, 7.5610633 ], [ 125.7793298, 7.5610194 ], [ 125.7793922, 7.5609828 ], [ 125.7794251, 7.560935 ], [ 125.7794331, 7.5608758 ], [ 125.7794277, 7.5607655 ], [ 125.7794116, 7.5605873 ], [ 125.7793741, 7.5604544 ], [ 125.7793258, 7.5603879 ], [ 125.7792225, 7.5602988 ], [ 125.7791434, 7.5601645 ], [ 125.7790897, 7.5600454 ], [ 125.7790455, 7.5598335 ], [ 125.7790133, 7.5597085 ], [ 125.7789601, 7.5595899 ], [ 125.7784469, 7.5588976 ], [ 125.7784199, 7.5588238 ], [ 125.7784065, 7.5587507 ], [ 125.7784076, 7.5586566 ], [ 125.778552, 7.5575788 ], [ 125.7785869, 7.5572331 ], [ 125.7785926, 7.5569708 ], [ 125.7785703, 7.5561607 ], [ 125.7785493, 7.5556803 ], [ 125.7785305, 7.5553346 ], [ 125.7784983, 7.5550767 ], [ 125.7784299, 7.5547826 ], [ 125.7782288, 7.554288 ], [ 125.7781899, 7.5541301 ], [ 125.7781738, 7.55396 ], [ 125.7781366, 7.5529602 ], [ 125.778096, 7.5527236 ], [ 125.7780249, 7.5525171 ], [ 125.7778237, 7.552089 ], [ 125.77775, 7.5517105 ], [ 125.7776615, 7.5513117 ], [ 125.7775984, 7.5510573 ], [ 125.7774281, 7.5508304 ], [ 125.777307, 7.5506044 ], [ 125.7773074, 7.5501364 ], [ 125.7773356, 7.5497429 ], [ 125.7773463, 7.5493015 ], [ 125.7773396, 7.5488761 ], [ 125.7795838, 7.5449572 ], [ 125.7796756, 7.5385215 ], [ 125.7832699, 7.5326109 ], [ 125.7775487, 7.5246485 ], [ 125.7738551, 7.523854 ] ] ] } }
]
}
